{"type": "FeatureCollection", "features": [{"type": "Feature", "properties": {"norad_id": 49537, "name": "COSMOS 1408 DEB", "group": "cosmos-1408-debris", "lat": -24.96726703723445, "lon": 100.86543451747998, "alt_km": 109.24491827815564, "timestamp": "2025-12-03T17:47:50.988139+00:00", "meta": {"OBJECT_NAME": "COSMOS 1408 DEB", "OBJECT_ID": "1982-092AA", "EPOCH": "2025-12-01T10:29:21.651360", "MEAN_MOTION": 16.33498888, "ECCENTRICITY": 0.00127731, "INCLINATION": 82.5092, "RA_OF_ASC_NODE": 107.1368, "ARG_OF_PERICENTER": 299.8571, "MEAN_ANOMALY": 60.1455, "EPHEMERIS_TYPE": 0, "CLASSIFICATION_TYPE": "U", "NORAD_CAT_ID": 49537, "ELEMENT_SET_NO": 999, "REV_AT_EPOCH": 22403, "BSTAR": 0.00094222941, "MEAN_MOTION_DOT": 0.05878558, "MEAN_MOTION_DDOT": -1.252052e-06}, "tle": {"line1": "1 49537U 82092AA  25335.43705615  .05878558 -12521-5  94223-3 0  9994", "line2": "2 49537  82.5092 107.1368 0012773 299.8571  60.1455 16.33498888224033"}}, "geometry": {"type": "Point", "coordinates": [100.86543451747998, -24.96726703723445]}}, {"type": "Feature", "properties": {"norad_id": 50032, "name": "COSMOS 1408 DEB", "group": "cosmos-1408-debris", "lat": 48.03184717930179, "lon": -120.61811451498903, "alt_km": 429.3735372165147, "timestamp": "2025-12-03T17:47:50.988160+00:00", "meta": {"OBJECT_NAME": "COSMOS 1408 DEB", "OBJECT_ID": "1982-092RU", "EPOCH": "2025-12-03T12:34:05.444832", "MEAN_MOTION": 15.45544262, "ECCENTRICITY": 0.0014683, "INCLINATION": 82.5656, "RA_OF_ASC_NODE": 67.9532, "ARG_OF_PERICENTER": 244.7236, "MEAN_ANOMALY": 115.2492, "EPHEMERIS_TYPE": 0, "CLASSIFICATION_TYPE": "U", "NORAD_CAT_ID": 50032, "ELEMENT_SET_NO": 999, "REV_AT_EPOCH": 22461, "BSTAR": 0.00015926, "MEAN_MOTION_DOT": 7.716e-05, "MEAN_MOTION_DDOT": 0}, "tle": {"line1": "1 50032U 82092RU  25337.52367413  .00007716  00000+0  15926-3 0  9998", "line2": "2 50032  82.5656  67.9532 0014683 244.7236 115.2492 15.45544262224613"}}, "geometry": {"type": "Point", "coordinates": [-120.61811451498903, 48.03184717930179]}}, {"type": "Feature", "properties": {"norad_id": 50058, "name": "COSMOS 1408 DEB", "group": "cosmos-1408-debris", "lat": 70.02025901007117, "lon": -122.15235093580333, "alt_km": 361.2648903434556, "timestamp": "2025-12-03T17:47:50.988174+00:00", "meta": {"OBJECT_NAME": "COSMOS 1408 DEB", "OBJECT_ID": "1982-092SW", "EPOCH": "2025-12-03T08:07:02.387712", "MEAN_MOTION": 15.63243355, "ECCENTRICITY": 0.001629, "INCLINATION": 82.6136, "RA_OF_ASC_NODE": 79.1744, "ARG_OF_PERICENTER": 132.3779, "MEAN_ANOMALY": 227.8861, "EPHEMERIS_TYPE": 0, "CLASSIFICATION_TYPE": "U", "NORAD_CAT_ID": 50058, "ELEMENT_SET_NO": 999, "REV_AT_EPOCH": 22657, "BSTAR": 0.00042304, "MEAN_MOTION_DOT": 0.00039112, "MEAN_MOTION_DDOT": 0}, "tle": {"line1": "1 50058U 82092SW  25337.33822208  .00039112  00000+0  42304-3 0  9998", "line2": "2 50058  82.6136  79.1744 0016290 132.3779 227.8861 15.63243355226571"}}, "geometry": {"type": "Point", "coordinates": [-122.15235093580333, 70.02025901007117]}}, {"type": "Feature", "properties": {"norad_id": 50404, "name": "COSMOS 1408 DEB", "group": "cosmos-1408-debris", "lat": 61.78390057152602, "lon": -120.9782205729977, "alt_km": 643.3677897160023, "timestamp": "2025-12-03T17:47:50.988186+00:00", "meta": {"OBJECT_NAME": "COSMOS 1408 DEB", "OBJECT_ID": "1982-092ADS", "EPOCH": "2025-12-03T03:12:53.924544", "MEAN_MOTION": 15.11741121, "ECCENTRICITY": 0.01766229, "INCLINATION": 82.2064, "RA_OF_ASC_NODE": 224.8525, "ARG_OF_PERICENTER": 232.1925, "MEAN_ANOMALY": 126.3205, "EPHEMERIS_TYPE": 0, "CLASSIFICATION_TYPE": "U", "NORAD_CAT_ID": 50404, "ELEMENT_SET_NO": 999, "REV_AT_EPOCH": 21048, "BSTAR": 0.0034989906, "MEAN_MOTION_DOT": 0.00088069, "MEAN_MOTION_DDOT": 0}, "tle": {"line1": "1 50404U 82092ADS 25337.13395746  .00088069  00000+0  34990-2 0  9999", "line2": "2 50404  82.2064 224.8525 0176622 232.1925 126.3205 15.11741121210481"}}, "geometry": {"type": "Point", "coordinates": [-120.9782205729977, 61.78390057152602]}}, {"type": "Feature", "properties": {"norad_id": 50621, "name": "COSMOS 1408 DEB", "group": "cosmos-1408-debris", "lat": 3.926884571143327, "lon": 84.05529097725346, "alt_km": 421.6284625496919, "timestamp": "2025-12-03T17:47:50.988197+00:00", "meta": {"OBJECT_NAME": "COSMOS 1408 DEB", "OBJECT_ID": "1982-092ALR", "EPOCH": "2025-12-03T06:58:32.674080", "MEAN_MOTION": 15.55896354, "ECCENTRICITY": 0.0028874, "INCLINATION": 82.5704, "RA_OF_ASC_NODE": 84.0109, "ARG_OF_PERICENTER": 187.0986, "MEAN_ANOMALY": 172.9864, "EPHEMERIS_TYPE": 0, "CLASSIFICATION_TYPE": "U", "NORAD_CAT_ID": 50621, "ELEMENT_SET_NO": 999, "REV_AT_EPOCH": 22103, "BSTAR": 0.00050325, "MEAN_MOTION_DOT": 0.0003565, "MEAN_MOTION_DDOT": 0}, "tle": {"line1": "1 50621U 82092ALR 25337.29065595  .00035650  00000+0  50325-3 0  9992", "line2": "2 50621  82.5704  84.0109 0028874 187.0986 172.9864 15.55896354221038"}}, "geometry": {"type": "Point", "coordinates": [84.05529097725346, 3.926884571143327]}}]}